[{"OBJECT_NAME":"COSMOS 2565","OBJECT_ID":"2022-163A","EPOCH":"2026-03-09T23:20:24.133056","MEAN_MOTION":13.96674174,"ECCENTRICITY":0.00058338,"INCLINATION":67.1493,"RA_OF_ASC_NODE":348.3576,"ARG_OF_PERICENTER":276.4111,"MEAN_ANOMALY":83.6309,"EPHEMERIS_TYPE":0,"CLASSIFICATION_TYPE":"U","NORAD_CAT_ID":54381,"ELEMENT_SET_NO":999,"REV_AT_EPOCH":16691,"BSTAR":3.972057e-5,"MEAN_MOTION_DOT":-2.0e-7,"MEAN_MOTION_DDOT":0},{"OBJECT_NAME":"SL-16 DEB","OBJECT_ID":"1992-093DL","EPOCH":"2026-03-09T06:10:24.746304","MEAN_MOTION":13.96053238,"ECCENTRICITY":0.01060131,"INCLINATION":71.1818,"RA_OF_ASC_NODE":7.7237,"ARG_OF_PERICENTER":342.7877,"MEAN_ANOMALY":16.9651,"EPHEMERIS_TYPE":0,"CLASSIFICATION_TYPE":"U","NORAD_CAT_ID":22419,"ELEMENT_SET_NO":999,"REV_AT_EPOCH":68714,"BSTAR":0.00030949683,"MEAN_MOTION_DOT":4.01e-6,"MEAN_MOTION_DDOT":0}]
